{"type": "FeatureCollection", "features": [ {"type": "Feature", "properties": {"norad_id": 30146, "name": "FENGYUN 1C DEB", "group": "fengyun-1c-debris", "lat": -10.985497927352608, "lon": -31.37140321585902, "alt_km": 920.8180456087184, "timestamp": "2025-12-17T04:57:44.640655+00:00", "meta": {"OBJECT_NAME": "FENGYUN 1C DEB", "OBJECT_ID": "1999-025TB", "EPOCH": "2025-12-16T23:26:59.294688", "MEAN_MOTION": 13.86607004, "ECCENTRICITY": 0.01787614, "INCLINATION": 98.02, "RA_OF_ASC_NODE": 149.9997, "ARG_OF_PERICENTER": 111.1476, "MEAN_ANOMALY": 11.8837, "EPHEMERIS_TYPE": 0, "CLASSIFICATION_TYPE": "U", "NORAD_CAT_ID": 30146, "ELEMENT_SET_NO": 999, "REV_AT_EPOCH": 95476, "BSTAR": 0.00053625788, "MEAN_MOTION_DOT": 6.74e-06, "MEAN_MOTION_DDOT": 0}, "tle": {"line1": "1 30146U 99025TB  25350.97707517  .00000674  00000+0  53626-3 0  9998", "line2": "2 30146  98.0200 149.9997 0178761 111.1476  11.8837 13.86607004954768"}}, "geometry": {"type": "Point", "coordinates": [-31.37140321585902, -10.985497927352608]}}, {"type": "Feature", "properties": {"norad_id": 30148, "name": "FENGYUN 1C DEB", "group": "fengyun-1c-debris", "lat": -64.76144182007036, "lon": -60.29529381447885, "alt_km": 893.1430647284706, "timestamp": "2025-12-17T04:57:44.640664+00:00", "meta": {"OBJECT_NAME": "FENGYUN 1C DEB", "OBJECT_ID": "1999-025TD", "EPOCH": "2025-12-16T23:11:41.284320", "MEAN_MOTION": 13.88497525, "ECCENTRICITY": 0.0134999, "INCLINATION": 99.545, "RA_OF_ASC_NODE": 140.3709, "ARG_OF_PERICENTER": 185.4684, "MEAN_ANOMALY": 299.0496, "EPHEMERIS_TYPE": 0, "CLASSIFICATION_TYPE": "U", "NORAD_CAT_ID": 30148, "ELEMENT_SET_NO": 999, "REV_AT_EPOCH": 95575, "BSTAR": 0.00076549479, "MEAN_MOTION_DOT": 9.42e-06, "MEAN_MOTION_DDOT": 0}, "tle": {"line1": "1 30148U 99025TD  25350.96645005  .00000942  00000+0  76549-3 0  9999", "line2": "2 30148  99.5450 140.3709 0134999 185.4684 299.0496 13.88497525955757"}}, "geometry": {"type": "Point", "coordinates": [-60.29529381447885, -64.76144182007036]}}, {"type": "Feature", "properties": {"norad_id": 30150, "name": "FENGYUN 1C DEB", "group": "fengyun-1c-debris", "lat": -7.884543713992467, "lon": 128.28514762970954, "alt_km": 849.5278088513405, "timestamp": "2025-12-17T04:57:44.640673+00:00", "meta": {"OBJECT_NAME": "FENGYUN 1C DEB", "OBJECT_ID": "1999-025TF", "EPOCH": "2025-12-16T22:41:23.227872", "MEAN_MOTION": 13.86599386, "ECCENTRICITY": 0.01464258, "INCLINATION": 98.9946, "RA_OF_ASC_NODE": 126.777, "ARG_OF_PERICENTER": 324.7163, "MEAN_ANOMALY": 162.6997, "EPHEMERIS_TYPE": 0, "CLASSIFICATION_TYPE": "U", "NORAD_CAT_ID": 30150, "ELEMENT_SET_NO": 999, "REV_AT_EPOCH": 95516, "BSTAR": 0.00048766847, "MEAN_MOTION_DOT": 5.73e-06, "MEAN_MOTION_DDOT": 0}, "tle": {"line1": "1 30150U 99025TF  25350.94540773  .00000573  00000+0  48767-3 0  9997", "line2": "2 30150  98.9946 126.7770 0146425 324.7163 162.6997 13.86599386955168"}}, "geometry": {"type": "Point", "coordinates": [128.28514762970954, -7.884543713992467]}}, {"type": "Feature", "properties": {"norad_id": 30151, "name": "FENGYUN 1C DEB", "group": "fengyun-1c-debris", "lat": 60.318542860707446, "lon": -164.70818059982756, "alt_km": 1043.4235493938122, "timestamp": "2025-12-17T04:57:44.640682+00:00", "meta": {"OBJECT_NAME": "FENGYUN 1C DEB", "OBJECT_ID": "1999-025TG", "EPOCH": "2025-12-16T23:30:18.209088", "MEAN_MOTION": 13.84478881, "ECCENTRICITY": 0.01631857, "INCLINATION": 99.0631, "RA_OF_ASC_NODE": 358.8097, "ARG_OF_PERICENTER": 267.3362, "MEAN_ANOMALY": 159.2623, "EPHEMERIS_TYPE": 0, "CLASSIFICATION_TYPE": "U", "NORAD_CAT_ID": 30151, "ELEMENT_SET_NO": 999, "REV_AT_EPOCH": 95304, "BSTAR": 0.00053158923, "MEAN_MOTION_DOT": 6.17e-06, "MEAN_MOTION_DDOT": 0}, "tle": {"line1": "1 30151U 99025TG  25350.97937742  .00000617  00000+0  53159-3 0  9997", "line2": "2 30151  99.0631 358.8097 0163185 267.3362 159.2623 13.84478881953044"}}, "geometry": {"type": "Point", "coordinates": [-164.70818059982756, 60.318542860707446]}}, {"type": "Feature", "properties": {"norad_id": 30152, "name": "FENGYUN 1C DEB", "group": "fengyun-1c-debris", "lat": 75.25515697448267, "lon": 171.48040013764475, "alt_km": 780.3447351320237, "timestamp": "2025-12-17T04:57:44.640691+00:00", "meta": {"OBJECT_NAME": "FENGYUN 1C DEB", "OBJECT_ID": "1999-025TH", "EPOCH": "2025-12-16T13:07:29.323488", "MEAN_MOTION": 13.96715551, "ECCENTRICITY": 0.01621661, "INCLINATION": 99.0808, "RA_OF_ASC_NODE": 208.2507, "ARG_OF_PERICENTER": 74.8772, "MEAN_ANOMALY": 287.0266, "EPHEMERIS_TYPE": 0, "CLASSIFICATION_TYPE": "U", "NORAD_CAT_ID": 30152, "ELEMENT_SET_NO": 999, "REV_AT_EPOCH": 95431, "BSTAR": 0.0021881575, "MEAN_MOTION_DOT": 3.351e-05, "MEAN_MOTION_DDOT": 0}, "tle": {"line1": "1 30152U 99025TH  25350.54686717  .00003351  00000+0  21882-2 0  9999", "line2": "2 30152  99.0808 208.2507 0162166  74.8772 287.0266 13.96715551954314"}}, "geometry": {"type": "Point", "coordinates": [171.48040013764475, 75.25515697448267]}}, {"type": "Feature", "properties": {"norad_id": 30153, "name": "FENGYUN 1C DEB", "group": "fengyun-1c-debris", "lat": 31.627185158567908, "lon": 168.58892528176443, "alt_km": 1097.487130648704, "timestamp": "2025-12-17T04:57:44.640701+00:00", "meta": {"OBJECT_NAME": "FENGYUN 1C DEB", "OBJECT_ID": "1999-025TJ", "EPOCH": "2025-12-16T13:09:01.156320", "MEAN_MOTION": 13.78781199, "ECCENTRICITY": 0.0200689, "INCLINATION": 100.467, "RA_OF_ASC_NODE": 341.3251, "ARG_OF_PERICENTER": 355.9686, "MEAN_ANOMALY": 122.1301, "EPHEMERIS_TYPE": 0, "CLASSIFICATION_TYPE": "U", "NORAD_CAT_ID": 30153, "ELEMENT_SET_NO": 999, "REV_AT_EPOCH": 94827, "BSTAR": 0.0011843575, "MEAN_MOTION_DOT": 1.347e-05, "MEAN_MOTION_DDOT": 0}, "tle": {"line1": "1 30153U 99025TJ  25350.54793005  .00001347  00000+0  11844-2 0  9999", "line2": "2 30153 100.4670 341.3251 0200689 355.9686 122.1301 13.78781199948272"}}, "geometry": {"type": "Point", "coordinates": [168.58892528176443, 31.627185158567908]}}, {"type": "Feature", "properties": {"norad_id": 30154, "name": "FENGYUN 1C DEB", "group": "fengyun-1c-debris", "lat": 29.294786331386106, "lon": -142.6550103933132, "alt_km": 832.3414330902588, "timestamp": "2025-12-17T04:57:44.640710+00:00", "meta": {"OBJECT_NAME": "FENGYUN 1C DEB", "OBJECT_ID": "1999-025TK", "EPOCH": "2025-12-16T16:43:30.514944", "MEAN_MOTION": 13.86004254, "ECCENTRICITY": 0.01830091, "INCLINATION": 98.4496, "RA_OF_ASC_NODE": 32.1007, "ARG_OF_PERICENTER": 187.9719, "MEAN_ANOMALY": 300.7756, "EPHEMERIS_TYPE": 0, "CLASSIFICATION_TYPE": "U", "NORAD_CAT_ID": 30154, "ELEMENT_SET_NO": 999, "REV_AT_EPOCH": 95039, "BSTAR": 0.0012199769, "MEAN_MOTION_DOT": 1.563e-05, "MEAN_MOTION_DDOT": 0}, "tle": {"line1": "1 30154U 99025TK  25350.69688096  .00001563  00000+0  12200-2 0  9996", "line2": "2 30154  98.4496  32.1007 0183009 187.9719 300.7756 13.86004254950398"}}, "geometry": {"type": "Point", "coordinates": [-142.6550103933132, 29.294786331386106]}}, {"type": "Feature", "properties": {"norad_id": 30155, "name": "FENGYUN 1C DEB", "group": "fengyun-1c-debris", "lat": 5.816881448832914, "lon": -114.17311702764029, "alt_km": 1152.793694865828, "timestamp": "2025-12-17T04:57:44.640719+00:00", "meta": {"OBJECT_NAME": "FENGYUN 1C DEB", "OBJECT_ID": "1999-025TL", "EPOCH": "2025-12-16T17:37:11.927712", "MEAN_MOTION": 13.73817985, "ECCENTRICITY": 0.02419959, "INCLINATION": 99.7517, "RA_OF_ASC_NODE": 64.3409, "ARG_OF_PERICENTER": 333.4016, "MEAN_ANOMALY": 25.4881, "EPHEMERIS_TYPE": 0, "CLASSIFICATION_TYPE": "U", "NORAD_CAT_ID": 30155, "ELEMENT_SET_NO": 999, "REV_AT_EPOCH": 93919, "BSTAR": 0.0016100568, "MEAN_MOTION_DOT": 1.814e-05, "MEAN_MOTION_DDOT": 0}, "tle": {"line1": "1 30155U 99025TL  25350.73416583  .00001814  00000+0  16101-2 0  9995", "line2": "2 30155  99.7517  64.3409 0241995 333.4016  25.4881 13.73817985939191"}}, "geometry": {"type": "Point", "coordinates": [-114.17311702764029, 5.816881448832914]}}, {"type": "Feature", "properties": {"norad_id": 30156, "name": "FENGYUN 1C DEB", "group": "fengyun-1c-debris", "lat": 0.8782045653074986, "lon": 138.09715988763546, "alt_km": 915.6718703697879, "timestamp": "2025-12-17T04:57:44.640728+00:00", "meta": {"OBJECT_NAME": "FENGYUN 1C DEB", "OBJECT_ID": "1999-025TM", "EPOCH": "2025-12-16T21:23:57.862752", "MEAN_MOTION": 13.80826589, "ECCENTRICITY": 0.01989281, "INCLINATION": 98.9183, "RA_OF_ASC_NODE": 317.6616, "ARG_OF_PERICENTER": 251.7204, "MEAN_ANOMALY": 163.7991, "EPHEMERIS_TYPE": 0, "CLASSIFICATION_TYPE": "U", "NORAD_CAT_ID": 30156, "ELEMENT_SET_NO": 999, "REV_AT_EPOCH": 94748, "BSTAR": 0.0010058199, "MEAN_MOTION_DOT": 1.188e-05, "MEAN_MOTION_DDOT": 0}, "tle": {"line1": "1 30156U 99025TM  25350.89164193  .00001188  00000+0  10058-2 0  9999", "line2": "2 30156  98.9183 317.6616 0198928 251.7204 163.7991 13.80826589947481"}}, "geometry": {"type": "Point", "coordinates": [138.09715988763546, 0.8782045653074986]}}, {"type": "Feature", "properties": {"norad_id": 30157, "name": "FENGYUN 1C DEB", "group": "fengyun-1c-debris", "lat": 50.068713509443484, "lon": 77.79783176630741, "alt_km": 753.5195172662206, "timestamp": "2025-12-17T04:57:44.640737+00:00", "meta": {"OBJECT_NAME": "FENGYUN 1C DEB", "OBJECT_ID": "1999-025TN", "EPOCH": "2025-12-16T05:43:00.765984", "MEAN_MOTION": 14.45151688, "ECCENTRICITY": 0.00371207, "INCLINATION": 98.7158, "RA_OF_ASC_NODE": 87.3642, "ARG_OF_PERICENTER": 183.0008, "MEAN_ANOMALY": 232.1673, "EPHEMERIS_TYPE": 0, "CLASSIFICATION_TYPE": "U", "NORAD_CAT_ID": 30157, "ELEMENT_SET_NO": 999, "REV_AT_EPOCH": 98123, "BSTAR": 0.0015206291, "MEAN_MOTION_DOT": 5.324e-05, "MEAN_MOTION_DDOT": 0}, "tle": {"line1": "1 30157U 99025TN  25350.23820331  .00005324  00000+0  15206-2 0  9997", "line2": "2 30157  98.7158  87.3642 0037120 183.0008 232.1673 14.45151688981239"}}, "geometry": {"type": "Point", "coordinates": [77.79783176630741, 50.068713509443484]}}]}